IRIDIUM 159             
1 43578U 18061K   25040.84979532  .00000189  00000+0  60335-4 0  9999
2 43578  86.3928 262.4186 0001734  86.0191 274.1203 14.34218426342816
IRIDIUM 180             
1 43922U 19002A   25040.91906067  .00000548  00000+0  18862-3 0  9995
2 43922  86.3999 199.2899 0002028  97.6936 262.4490 14.34221754318434
IRIDIUM 176             
1 43923U 19002B   25040.93685780  .00002421  00000+0  37997-3 0  9996
2 43923  86.6119 199.2853 0001287 111.0946 249.0409 14.72260230326827
IRIDIUM 168             
1 43924U 19002C   25040.91271754  .00000177  00000+0  56308-4 0  9991
2 43924  86.4002 199.3559 0001899  93.2191 266.9222 14.34217833318419
IRIDIUM 173             
1 43925U 19002D   25040.90002824  .00000620  00000+0  21421-3 0  9991
2 43925  86.3997 199.2703 0002045  96.7528 263.3900 14.34219677318397
IRIDIUM 169             
1 43926U 19002E   25040.93652588  .00000262  00000+0  79203-4 0  9997
2 43926  86.4200 230.8496 0003240 115.5400 244.6133 14.38585207319451
IRIDIUM 172             
1 43927U 19002F   25040.89369144 -.00000073  00000+0 -33087-4 0  9998
2 43927  86.3996 199.2795 0001872  94.8916 265.2493 14.34217646318400
IRIDIUM 175             
1 43928U 19002G   25040.86363856  .00002444  00000+0  38364-3 0  9994
2 43928  86.1558 159.1005 0003199  92.1240 268.0343 14.72242643326802
